NORAD_CAT_ID,OBJECT_NAME,OBJECT_TYPE,EPOCH,MEAN_MOTION,ECCENTRICITY,INCLINATION,RA_OF_ASC_NODE,ARG_OF_PERICENTER,MEAN_ANOMALY,BSTAR,MEAN_MOTION_DOT,MEAN_MOTION_DDOT,TLE_LINE0,TLE_LINE1,TLE_LINE2,SEMIMAJOR_AXIS,PERIOD,APOGEE,PERIGEE,DECAYED
55950.0,STARLINK-5911,PAYLOAD,2023-03-22 18:00:00,15.95193396,0.0039389,69.9998,167.7443,162.6126,301.2794,-0.0022939,-0.00974598,0.00029776,0 STARLINK-5911,1 55950U 23037AN  23081.75001157 -.00974598  29776-3 -22939-2 0  9994,2 55950  69.9998 167.7443 0039389 162.6126 301.2794 15.95193396  1305,6665.913,90.271,314.034,261.521,0.0
55950.0,STARLINK-5911,PAYLOAD,2023-03-22 22:00:00,15.9489274,0.003828,70.0,167.2581,163.204,177.4053,-0.0024751,-0.01029229,0.00032829,0 STARLINK-5911,1 55950U 23037AN  23081.91667824 -.01029229  32829-3 -24751-2 0  9991,2 55950  70.0000 167.2581 0038280 163.2040 177.4053 15.94892740  1300,6666.75,90.288,314.136,263.095,0.0
55950.0,STARLINK-5911,PAYLOAD,2023-03-23 02:35:56,15.94731843,0.0035839,69.9972,166.6982,161.5088,198.7433,-0.00066754,-0.00274574,2.9657e-05,0 STARLINK-5911,1 55950U 23037AN  23082.10829266 -.00274574  29657-4 -66754-3 0  9993,2 55950  69.9972 166.6982 0035839 161.5088 198.7433 15.94731843  1352,6667.199,90.297,312.958,265.169,0.0
55950.0,STARLINK-5911,PAYLOAD,2023-03-24 17:00:11,15.91358631,0.001834,69.9999,162.0448,173.9198,359.8112,-0.0029798,-0.00971726,0.00028476,0 STARLINK-5911,1 55950U 23037AN  23083.70846065 -.00971726  28476-3 -29798-2 0  9992,2 55950  69.9999 162.0448 0018340 173.9198 359.8112 15.91358631  1604,6676.617,90.489,310.727,286.237,0.0
55950.0,STARLINK-5911,PAYLOAD,2023-03-24 22:00:01,15.90976395,0.0017094,70.0001,161.4406,176.7727,109.3574,-0.0032148,-0.01025433,0.00031336,0 STARLINK-5911,1 55950U 23037AN  23083.91668981 -.01025433  31336-3 -32148-2 0  9992,2 55950  70.0001 161.4406 0017094 176.7727 109.3574 15.90976395  1301,6677.686,90.51,310.966,288.137,0.0
55950.0,STARLINK-5911,PAYLOAD,2023-03-25 06:00:00,15.90318835,0.0012597,70.0004,160.4747,186.2869,207.9492,-0.0033048,-0.01013232,0.00030451,0 STARLINK-5911,1 55950U 23037AN  23084.25001157 -.01013232  30451-3 -33048-2 0  9997,2 55950  70.0004 160.4747 0012597 186.2869 207.9492 15.90318835  1692,6679.527,90.548,309.806,292.978,0.0
55950.0,STARLINK-5911,PAYLOAD,2023-03-25 14:00:01,15.89650368,0.0010663,70.0002,159.5093,196.409,305.2211,-0.0033098,-0.00979301,0.00028405,0 STARLINK-5911,1 55950U 23037AN  23084.58334491 -.00979301  28405-3 -33098-2 0  9991,2 55950  70.0002 159.5093 0010663 196.4090 305.2211 15.89650368  1749,6681.399,90.586,310.389,296.14,0.0
55950.0,STARLINK-5911,PAYLOAD,2023-03-25 22:00:00,15.89022692,0.000881,69.9998,158.5442,214.4834,33.7443,-0.0035937,-0.01028332,0.00030904,0 STARLINK-5911,1 55950U 23037AN  23084.91667824 -.01028332  30904-3 -35937-2 0  9998,2 55950  69.9998 158.5442 0008810 214.4834  33.7443 15.89022692  1793,6683.159,90.622,310.912,299.136,0.0
55950.0,STARLINK-5911,PAYLOAD,2023-03-26 06:00:00,15.8837579,0.0008448,69.9998,157.5813,236.1432,117.9067,-0.0037573,-0.010407,0.00031399,0 STARLINK-5911,1 55950U 23037AN  23085.25001157 -.01040700  31399-3 -37573-2 0  9997,2 55950  69.9998 157.5813 0008448 236.1432 117.9067 15.88375790  1859,6684.973,90.659,312.486,301.191,0.0
55950.0,STARLINK-5911,PAYLOAD,2023-03-26 22:00:01,15.87047452,0.0009144,69.9998,155.657,266.4173,297.0092,-0.0038327,-0.00904671,0.0,0 STARLINK-5911,1 55950U 23037AN  23085.91668981 -.00904671  00000-0 -38327-2 0  9999,2 55950  69.9998 155.6570 0009144 266.4173 297.0092 15.87047452  1959,6688.703,90.735,316.684,304.452,0.0
55950.0,STARLINK-5911,PAYLOAD,2023-03-27 14:00:01,15.85751689,0.0007599,69.9999,153.736,271.6829,137.8461,-0.0041563,-0.0091772,0.0,0 STARLINK-5911,1 55950U 23037AN  23086.58334491 -.00917720  00000-0 -41563-2 0  9994,2 55950  69.9999 153.7360 0007599 271.6829 137.8461 15.85751689  1306,6692.346,90.809,319.297,309.125,0.0
55950.0,STARLINK-5911,PAYLOAD,2023-03-27 22:00:00,15.8511012,0.000405,70.0002,152.7777,275.6868,235.7494,-0.0043669,-0.00930487,0.0,0 STARLINK-5911,1 55950U 23037AN  23086.91667824 -.00930487  00000-0 -43669-2 0  9994,2 55950  70.0002 152.7777 0004050 275.6868 235.7494 15.85110120  2114,6694.152,90.845,318.728,313.306,0.0
55950.0,STARLINK-5911,PAYLOAD,2023-03-28 14:00:01,15.83790995,0.0003682,70.0001,150.8625,269.4204,83.5005,-0.0045319,-0.00908429,0.0,0 STARLINK-5911,1 55950U 23037AN  23087.58334491 -.00908429  00000-0 -45319-2 0  9994,2 55950  70.0001 150.8625 0003682 269.4204  83.5005 15.83790995  1308,6697.868,90.921,322.199,317.267,0.0
55950.0,STARLINK-5911,PAYLOAD,2023-03-28 22:00:00,15.83158353,0.0003644,70.0001,149.9061,279.7427,172.7348,-0.004822,-0.00935021,0.0,0 STARLINK-5911,1 55950U 23037AN  23087.91667824 -.00935021  00000-0 -48220-2 0  9992,2 55950  70.0001 149.9061 0003644 279.7427 172.7348 15.83158353  1307,6699.652,90.957,323.959,319.076,0.0
55950.0,STARLINK-5911,PAYLOAD,2023-03-29 02:00:01,15.828118,0.0003673,70.0002,149.4287,275.386,46.5907,-0.0047426,-0.00907576,0.0,0 STARLINK-5911,1 55950U 23037AN  23088.08334491 -.00907576  00000-0 -47426-2 0  9993,2 55950  70.0002 149.4287 0003673 275.3860  46.5907 15.82811800  2300,6700.63,90.977,324.956,320.034,0.0
55950.0,STARLINK-5911,PAYLOAD,2023-03-29 14:00:01,15.81834255,0.0003582,70.0002,147.9969,268.8926,20.3782,-0.0049642,-0.00907309,0.0,0 STARLINK-5911,1 55950U 23037AN  23088.58334491 -.00907309  00000-0 -49642-2 0  9994,2 55950  70.0002 147.9969 0003582 268.8926  20.3782 15.81834255  1307,6703.391,91.034,327.657,322.854,0.0
55950.0,STARLINK-5911,PAYLOAD,2023-03-29 22:00:00,15.81180728,0.0003632,70.0,147.043,268.7978,117.6933,-0.0051115,-0.00906338,0.0,0 STARLINK-5911,1 55950U 23037AN  23088.91667824 -.00906338  00000-0 -51115-2 0  9999,2 55950  70.0000 147.0430 0003632 268.7978 117.6933 15.81180728  1308,6705.238,91.071,329.538,324.667,0.0
55950.0,STARLINK-5911,PAYLOAD,2023-03-30 00:00:00,15.81015236,0.0003506,69.9998,146.8052,268.3868,232.2873,-0.0051222,-0.00901706,0.0,0 STARLINK-5911,1 55950U 23037AN  23089.00001157 -.00901706  00000-0 -51222-2 0  9994,2 55950  69.9998 146.8052 0003506 268.3868 232.2873 15.81015236  2446,6705.705,91.081,329.921,325.219,0.0
55950.0,STARLINK-5911,PAYLOAD,2023-03-30 22:00:00,15.79223804,0.0003623,70.0003,144.1886,271.4111,42.0432,-0.0055935,-0.00906413,0.0,0 STARLINK-5911,1 55950U 23037AN  23089.91667824 -.00906413  00000-0 -55935-2 0  9998,2 55950  70.0003 144.1886 0003623 271.4111  42.0432 15.79223804  2591,6710.776,91.184,335.072,330.209,0.0
55950.0,STARLINK-5911,PAYLOAD,2023-03-31 22:00:00,15.77267243,0.0003484,70.0002,141.3425,272.7999,320.5767,-0.0061089,-0.0090623,0.0,0 STARLINK-5911,1 55950U 23037AN  23090.91667824 -.00906230  00000-0 -61089-2 0  9994,2 55950  70.0002 141.3425 0003484 272.7999 320.5767 15.77267243  2746,6716.324,91.297,340.529,335.849,0.0
55950.0,STARLINK-5911,PAYLOAD,2023-04-01 14:00:01,15.75958665,0.0003631,69.9999,139.4493,275.536,140.5454,-0.0064133,-0.00898565,0.0,0 STARLINK-5911,1 55950U 23037AN  23091.58334491 -.00898565  00000-0 -64133-2 0  9993,2 55950  69.9999 139.4493 0003631 275.5360 140.5454 15.75958665  1305,6720.042,91.373,344.347,339.467,0.0
55950.0,STARLINK-5911,PAYLOAD,2023-04-01 22:00:00,15.75309414,0.0003592,70.0002,138.5041,283.4397,222.8186,-0.0066316,-0.00902531,0.0,0 STARLINK-5911,1 55950U 23037AN  23091.91667824 -.00902531  00000-0 -66316-2 0  9993,2 55950  70.0002 138.5041 0003592 283.4397 222.8186 15.75309414  2901,6721.888,91.411,346.167,341.338,0.0
55950.0,STARLINK-5911,PAYLOAD,2023-04-02 14:00:01,15.74005139,0.0003663,70.0001,136.6169,277.3811,46.8866,-0.0070158,-0.00902114,0.0,0 STARLINK-5911,1 55950U 23037AN  23092.58334491 -.00902114  00000-0 -70158-2 0  9994,2 55950  70.0001 136.6169 0003663 277.3811  46.8866 15.74005139  1300,6725.601,91.486,349.929,345.002,0.0
55950.0,STARLINK-5911,PAYLOAD,2023-04-02 22:00:00,15.73347771,0.0003736,70.0003,135.6743,283.0914,129.0102,-0.0071569,-0.00895264,0.0,0 STARLINK-5911,1 55950U 23037AN  23092.91667824 -.00895264  00000-0 -71569-2 0  9994,2 55950  70.0003 135.6743 0003736 283.0914 129.0102 15.73347771  1305,6727.474,91.525,351.852,346.826,0.0
55950.0,STARLINK-5911,PAYLOAD,2023-04-03 14:00:01,15.72046521,0.0003511,69.9998,133.7923,278.9808,306.4358,-0.0076117,-0.00899934,0.0,0 STARLINK-5911,1 55950U 23037AN  23093.58334491 -.00899934  00000-0 -76117-2 0  9991,2 55950  69.9998 133.7923 0003511 278.9808 306.4358 15.72046521  3168,6731.186,91.6,355.414,350.687,0.0
55950.0,STARLINK-5911,PAYLOAD,2023-04-03 22:00:00,15.71178825,0.0003189,69.9953,132.8455,265.1566,45.8783,-0.0054963,-0.00645651,0.0,0 STARLINK-5911,1 55950U 23037AN  23093.91667824 -.00645651  00000-0 -54963-2 0  9997,2 55950  69.9953 132.8455 0003189 265.1566  45.8783 15.71178825  1301,6733.664,91.651,357.676,353.381,0.0
55950.0,STARLINK-5911,PAYLOAD,2023-04-04 08:00:01,15.7049521,0.000332,69.996,131.6724,271.3164,235.4247,-0.0063654,-0.00720212,0.0,0 STARLINK-5911,1 55950U 23037AN  23094.33335648 -.00720212  00000-0 -63654-2 0  9994,2 55950  69.9960 131.6724 0003320 271.3164 235.4247 15.70495210  3285,6735.618,91.691,359.719,355.246,0.0
55950.0,STARLINK-5911,PAYLOAD,2023-04-04 14:00:01,15.69968586,0.0003814,69.9964,130.9687,272.1896,207.333,-0.00059516,-0.00071311,0.0,0 STARLINK-5911,1 55950U 23037AN  23094.58334491 -.00071311  00000-0 -59516-3 0  9998,2 55950  69.9964 130.9687 0003814 272.1896 207.3330 15.69968586  3323,6737.124,91.722,361.558,356.419,0.0
55950.0,STARLINK-5911,PAYLOAD,2023-04-04 22:00:00,15.69876565,0.0003866,69.9974,130.031,264.9588,297.9353,0.0007351,0.00088952,0.0,0 STARLINK-5911,1 55950U 23037AN  23094.91667824  .00088952  00000-0  73510-3 0  9991,2 55950  69.9974 130.0310 0003866 264.9588 297.9353 15.69876565  1303,6737.387,91.727,361.857,356.647,0.0
